GLOBALSTAR M068         
1 32266U 07048D   24296.48561108 -.00000028  00000+0  42143-3 0  9991
2 32266  51.9891 306.8415 0000912 352.7993 162.8271 12.62804563787524
GLOBALSTAR M079         
1 37188U 10054A   24296.53623186 -.00000097  00000+0  40297-4 0  9996
2 37188  52.0013 143.2353 0001158  94.1221 283.0564 12.62266217646442
GLOBALSTAR M074         
1 37189U 10054B   24296.56376771 -.00000091  00000+0  70606-4 0  9996
2 37189  51.9991 142.5065 0000754  90.8467 294.1319 12.62258138647056
GLOBALSTAR M076         
1 37190U 10054C   24296.06800918 -.00000079  00000+0  13680-3 0  9992
2 37190  52.0007 144.1716 0000932 108.5471  58.5101 12.62272307646705
GLOBALSTAR M077         
1 37191U 10054D   24296.50118522 -.00000112  00000+0 -48328-4 0  9992
2 37191  52.0056  99.6365 0000877  98.9511 298.4188 12.62265760647132
GLOBALSTAR M075         
1 37192U 10054E   24296.15781376 -.00000068  00000+0  20160-3 0  9999
2 37192  51.9937 186.2850 0000720  75.4233  81.8855 12.62267869646315
GLOBALSTAR M073         
1 37193U 10054F   24296.52866123 -.00000106  00000+0 -12061-4 0  9991
2 37193  52.0045  98.7904 0000912 107.6924 295.2882 12.62271624647825
GLOBALSTAR M083         
1 37739U 11033A   24296.46983709 -.00000088  00000+0  88562-4 0  9995
2 37739  51.9875  48.0248 0000847  99.6556 336.3211 12.62266526616832
GLOBALSTAR M088         
1 37740U 11033B   24296.54215956 -.00000077  00000+0  15088-3 0  9998
2 37740  51.9739 313.4988 0000488  80.0017  85.7236 12.62263619612388
GLOBALSTAR M091         
1 37741U 11033C   24296.39471343 -.00000076  00000+0  15309-3 0  9991
2 37741  51.9992 277.0798 0000777  64.8789  88.6824 12.62268888613155
GLOBALSTAR M085         
1 37742U 11033D   24296.22092792 -.00000062  00000+0  23346-3 0  9996
2 37742  51.9860 228.8550 0000913  65.5738  79.1682 12.62267682614131
GLOBALSTAR M081         
1 37743U 11033E   24296.33209007 -.00000077  00000+0  14968-3 0  9994
2 37743  51.9954 231.1562 0000881  80.1599  90.3130 12.62271207613802
GLOBALSTAR M089         
1 37744U 11033F   24296.21542049 -.00000061  00000+0  23956-3 0  9998
2 37744  51.9922 185.7877 0000557  91.4076  87.0017 12.62271216614882
GLOBALSTAR M084         
1 38040U 11080A   24296.52370253 -.00000098  00000+0  29789-4 0  9991
2 38040  52.0021  52.0053 0000499 127.8849 312.7576 12.62268838592938
GLOBALSTAR M080         
1 38041U 11080B   24296.49673796 -.00000109  00000+0 -29336-4 0  9998
2 38041  52.0073  53.6113 0000719 146.4726 291.2055 12.62266983592916
GLOBALSTAR M082         
1 38042U 11080C   24296.51532108 -.00000077  00000+0  15133-3 0  9995
2 38042  52.0104   8.9783 0000784  67.4712  34.8830 12.62267969593487
GLOBALSTAR M092         
1 38043U 11080D   24296.47411216 -.00000103  00000+0  62943-5 0  9990
2 38043  52.0068  99.4653 0000745  94.6024 300.5388 12.62268152591937
GLOBALSTAR M090         
1 38044U 11080E   24296.54978258 -.00000074  00000+0  16857-3 0  9991
2 38044  51.9915   2.9877 0000622  86.7129  52.5946 12.62269008593607
GLOBALSTAR M086         
1 38045U 11080F   24296.48932712 -.00000075  00000+0  15801-3 0  9999
2 38045  51.9924   3.7036 0001288 137.9970 327.0512 12.62268594593648
GLOBALSTAR M097         
1 39072U 13005A   24296.41381137 -.00000088  00000+0  86581-4 0  9999
2 39072  52.0042 278.2416 0000698  79.5666 280.5279 12.62272032540861
GLOBALSTAR M093         
1 39073U 13005B   24296.38704732 -.00000074  00000+0  16847-3 0  9998
2 39073  51.9805 272.0038 0000777  73.6416 286.4536 12.62265940540732
GLOBALSTAR M094         
1 39074U 13005C   24296.14951941 -.00000073  00000+0  17037-3 0  9990
2 39074  51.9950 186.8714 0001124  82.4508 277.6486 12.62264059542316
GLOBALSTAR M096         
1 39075U 13005D   24296.16268013 -.00000069  00000+0  19337-3 0  9994
2 39075  52.0066 235.1588 0000987  70.7120 289.3853 12.62271855541230
GLOBALSTAR M078         
1 39076U 13005E   24296.45266880 -.00000076  00000+0  15262-3 0  9998
2 39076  51.9883 319.1088 0001161  32.0089 328.0848 12.62276491539899
GLOBALSTAR M095         
1 39077U 13005F   24296.47949985 -.00000080  00000+0  13094-3 0  9991
2 39077  51.9807 316.3448 0000946  63.3991 296.6972 12.62266620539750
GLOBALSTAR M087         
1 52888U 22064A   24296.58521346 -.00000100  00000+0  52946-4 0  9993
2 52888  51.9737 124.1437 0008889 332.9123  27.1312 13.37590729114573
